CASSIOPE                
1 39265U 13055A   21028.87587154  .00004314  00000-0  12023-3 0  9990
2 39265  80.9656  78.5237 0653579   3.3418 357.1811 14.31144543380026
ZACUBE-1 (TSHEPISOSAT)  
1 39417U 13066B   21028.90805538  .00000279  00000-0  41274-4 0  9991
2 39417  97.5805  20.5728 0057232 258.4259 101.0526 14.81417694388412
CINEMA-3 (KHUSAT-2)     
1 39426U 13066L   21028.62018746  .00000250  00000-0  46483-4 0  9993
2 39426  97.7373 347.6322 0105423  53.8744 307.2164 14.69618605385112
TRITON-1                
1 39427U 13066M   21028.80911480  .00000302  00000-0  55430-4 0  9991
2 39427  97.7583 343.6196 0114917  77.5334 283.8702 14.68139888384720
DELFI-N3XT              
1 39428U 13066N   21028.81923670  .00000512  00000-0  88110-4 0  9991
2 39428  97.7640 342.0592 0121437  89.9800 271.5321 14.67849709384481
GOMX-1                  
1 39430U 13066Q   21028.88711120  .00000160  00000-0  38035-4 0  9996
2 39430  97.8091 320.0124 0150223 193.9999 165.7019 14.59526337382680
BRITE-PL1 (LEM)         
1 39431U 13066R   21028.92352830  .00000097  00000-0  31169-4 0  9991
2 39431  97.7715 280.4899 0201994 350.5924   9.1509 14.47112464379390
ICUBE-1                 
1 39432U 13066S   21028.81790305  .00000529  00000-0  58707-4 0  9990
2 39432  97.4854  54.1433 0032723 146.6456 213.6833 14.90751065389508
HUMSAT-D                
1 39433U 13066T   21028.49161222  .00000881  00000-0  89738-4 0  9994
2 39433  97.4847  60.4070 0031724 128.8415 231.5644 14.92718289389866
VELOX-PII               
1 39438U 13066Y   21028.65048569  .00000302  00000-0  47173-4 0  9990
2 39438  97.6263  10.8032 0069160 301.4110  58.0350 14.78138984386425
FIRST-MOVE              
1 39439U 13066Z   21028.70216035  .00000685  00000-0  89050-4 0  9996
2 39439  97.5869  21.5148 0063442 257.6786 101.7321 14.82411200387247
CUBEBUG-2 (LO-74)       
1 39440U 13066AA  21028.88723648  .00000363  00000-0  57188-4 0  9990
2 39440  97.6585   5.2726 0079253 329.3651  30.2943 14.76151043385839
NEE-02 KRYSAOR          
1 39441U 13066AB  21028.64645888  .00000278  00000-0  46486-4 0  9998
2 39441  97.6674   2.4463 0081096 340.4355  19.3748 14.75115665385604
FUNCUBE-1 (AO-73)       
1 39444U 13066AE  21028.90910164  .00000352  00000-0  49284-4 0  9994
2 39444  97.5725  22.9040 0056363 249.2812 110.2355 14.82303541386767
HINCUBE                 
1 39445U 13066AF  21028.96876591  .00000334  00000-0  47373-4 0  9993
2 39445  97.5739  22.8194 0056386 250.8014 108.7093 14.82138267386727
UWE-3                   
1 39446U 13066AG  21028.48991869  .00000382  00000-0  57064-4 0  9998
2 39446  97.6212  11.9604 0068467 296.3575  63.0617 14.78686025385820
AIST-1 (RS-41)          
1 39492U 13078C   21028.88471272  .00000260  00000-0  25639-4 0  9995
2 39492  82.4204 359.1604 0019649 342.5420  17.5137 14.87982693384743
SPROUT                  
1 39770U 14029E   21028.90257406  .00000927  00000-0  10663-3 0  9995
2 39770  97.9069 140.4383 0008012 312.1737  47.8796 14.88148495362583
UNISAT-6                
1 40012U 14033C   21028.82145788  .00000249  00000-0  44181-4 0  9991
2 40012  97.6864 238.4733 0058032 353.2689   6.7734 14.74233271355625
BUGSAT-1 (TITA)         
1 40014U 14033E   21028.86978121  .00000823  00000-0  79194-4 0  9992
2 40014  98.0944   3.6080 0029982 266.0091  93.7716 14.95626708360703
DUCHIFAT-1              
1 40021U 14033M   21028.76816569  .00000811  00000-0  87573-4 0  9993
2 40021  97.9614 327.6031 0011401 265.2363  94.7553 14.91161037359464
NANOSATC-BR1            
1 40024U 14033Q   21028.85198117  .00000412  00000-0  48294-4 0  9992
2 40024  97.9428 323.2874 0010729 270.6427  89.3561 14.90288326358806
QB50P1                  
1 40025U 14033R   21028.54385063  .00000487  00000-0  57384-4 0  9999
2 40025  97.9270 318.9384 0011052 280.7912  79.2061 14.89315738358595
DTUSAT-2                
1 40030U 14033W   21028.23602507  .00000399  00000-0  48561-4 0  9995
2 40030  97.9121 315.5688 0010451 277.7469  82.2561 14.88878183358452
QB50P2                  
1 40032U 14033Y   21028.73271434  .00000443  00000-0  53299-4 0  9997
2 40032  97.9129 316.0696 0010413 276.9983  83.0049 14.88832370358501
POLYITAN-1              
1 40042U 14033AJ  21028.71095390  .00000545  00000-0  63764-4 0  9992
2 40042  97.9359 319.7961 0013162 270.0824  89.8885 14.89096869358514
TIGRISAT                
1 40043U 14033AK  21028.52778347  .00000219  00000-0  39476-4 0  9993
2 40043  97.6842 239.5835 0059680 352.3178   7.7111 14.74471943355218
AISAT                   
1 40054U 14034B   21028.84484497  .00000546  00000-0  82769-4 0  9997
2 40054  98.3012 177.4493 0013791 128.4246 231.8204 14.78267817354903
CANX-4                  
1 40055U 14034C   21028.33842877  .00000147  00000-0  29878-4 0  9991
2 40055  98.2831 166.1828 0014669 161.7597 198.4140 14.75003885354258
CANX-5                  
1 40056U 14034D   21028.61375961  .00000135  00000-0  28042-4 0  9997
2 40056  98.2831 166.4529 0014711 161.0734 199.1024 14.74994755345101
VELOX-I                 
1 40057U 14034E   21028.88053532  .00000396  00000-0  62445-4 0  9998
2 40057  98.3057 178.4729 0011808 140.3292 219.8784 14.78052065354927
METEOR-M 2              
1 40069U 14037A   21028.91605417 -.00000041  00000-0  18056-6 0  9992
2 40069  98.4779  63.6204 0005544   0.1611 359.9567 14.20680110340221
DX1                     
1 40071U 14037C   21028.84425655  .00000154  00000-0  27186-4 0  9997
2 40071  98.4579 225.7787 0009426 130.7230 229.4804 14.81446223354625
UKUBE-1                 
1 40074U 14037F   21028.51733637  .00000341  00000-0  47727-4 0  9997
2 40074  98.4422 236.1818 0005194 108.7978 251.3788 14.84441140355147
FIREBIRD 3              
1 40377U 15003B   21028.90548320  .00003028  00000-0  11580-3 0  9995
2 40377  99.0834 141.2224 0119399 280.4161  78.3632 15.21314219331562
FIREBIRD 4              
1 40378U 15003C   21028.88617563  .00002788  00000-0  10681-3 0  9992
2 40378  99.0839 141.3184 0119533 280.3284  78.4490 15.21352664331568
GRIFEX                  
1 40379U 15003D   21028.23735050  .00002168  00000-0  92267-4 0  9997
2 40379  99.0840 131.0043 0129562 312.2713  46.7586 15.17295584330910
CP10 (EXOCUBE)          
1 40380U 15003E   21028.22280997  .00001550  00000-0  70654-4 0  9993
2 40380  99.0883 125.9549 0135189 329.6897  29.6560 15.15106462330577
DEORBITSAIL             
1 40719U 15032E   21028.40303375  .00000549  00000-0  84469-4 0  9993
2 40719  97.8463 277.1766 0015643 196.5878 163.4823 14.77219343299300
NUDT-PHONESAT           
1 40900U 15049B   21028.83246442  .00004043  00000-0  16284-3 0  9993
2 40900  97.4258  43.9253 0010404 270.9262 173.8335 15.25391353297536
XW-2A                   
1 40903U 15049E   21028.84689608  .00004130  00000-0  91379-4 0  9998
2 40903  97.2586  83.6872 0013436 156.4889 320.1594 15.44294181301240
XW-2C                   
1 40906U 15049H   21028.87596245  .00001037  00000-0  56697-4 0  9995
2 40906  97.4829  33.0243 0013399 317.0695  92.5362 15.16451820296413
XW-2D                   
1 40907U 15049J   21028.83830749  .00001202  00000-0  64655-4 0  9999
2 40907  97.4815  32.7390 0012778 313.8411 129.7642 15.16734735296433
LILACSAT-2              
1 40908U 15049K   21028.86129503  .00000897  00000-0  52548-4 0  9999
2 40908  97.4999  30.8051 0014802 327.6077 116.7052 15.14270567296102
XW-2E                   
1 40909U 15049L   21028.88091547  .00001839  00000-0  90927-4 0  9998
2 40909  97.4664  36.6059 0011759 300.8707 143.4667 15.19054609296746
XW-2F                   
1 40910U 15049M   21028.95931670  .00001777  00000-0  89185-4 0  9993
2 40910  97.4715  35.7586 0012891 299.3665  84.2924 15.18559772296550
XW-2B                   
1 40911U 15049N   21028.95617889  .00001128  00000-0  61027-4 0  9992
2 40911  97.4822  33.5507 0012678 314.5225  77.8939 15.16655225296343
KAITUO 1B               
1 40912U 15049P   21028.86841737  .00002110  00000-0  98048-4 0  9999
2 40912  97.4468  39.9920 0012872 271.8470 172.3637 15.21034502296972
TIANWANG 1C (TW-1C)     
1 40926U 15051B   21028.83046922  .00233130  22333-4  68160-3 0  9993
2 40926  97.0449  90.2723 0002014 256.0594 215.0663 15.92795009302473
TIANWANG 1B (TW-1B)     
1 40927U 15051C   21028.82624433  .00121175  00000-0  58653-3 0  9996
2 40927  97.0523  87.4328 0001524 324.7584 148.2744 15.82186588302161
TIANWANG 1A (TW-1A)     
1 40928U 15051D   21028.90363545  .00005930  00000-0  13000-3 0  9997
2 40928  97.0908  57.1964 0011757  84.4210 359.7015 15.44380906300148
LAPAN-A2                
1 40931U 15052B   21028.73492354  .00000718  00000-0  10840-4 0  9993
2 40931   5.9991 168.7883 0013537 229.3940 130.4975 14.76660517288618
LQSAT                   
1 40958U 15057A   21028.82835556  .00000012  00000-0  93887-5 0  9992
2 40958  97.8248  90.4951 0018987 142.0697 218.1841 14.73152875285694
ATHENOXAT 1             
1 41168U 15077C   21028.85412968  .00002744  00000-0  10583-3 0  9993
2 41168  14.9873 206.9290 0011108  25.1642  12.2340 15.15117597283572
GALASSIA                
1 41170U 15077E   21028.12916628  .00002807  00000-0  10808-3 0  9998
2 41170  14.9874 203.3295 0012308  45.2756 314.8566 15.15380881283461
VELOX-II                
1 41171U 15077F   21028.81506190  .00002009  00000-0  74990-4 0  9991
2 41171  14.9905 250.6688 0008720 295.3604  64.5814 15.12181071283148
CHUBUSAT-2              
1 41338U 16012B   21028.96865769  .00000434  00000-0  26878-4 0  9994
2 41338  31.0047 352.8048 0013777 191.4782 168.5541 15.00430944271632
CHUBUSAT-3              
1 41339U 16012C   21028.93920363  .00000385  00000-0  22993-4 0  9993
2 41339  31.0135 350.3674 0013320 199.3963 160.6169 15.00585881271620
HORYU-4                 
1 41340U 16012D   21028.97809797  .00000656  00000-0  42552-4 0  9990
2 41340  31.0063 335.3661 0013971 227.6419 132.3034 15.01725714271803
